{
  "type": "FeatureCollection",
  "features": [
    {
      "type": "Feature",
      "properties": {
        "norad_id": 32324,
        "name": "FENGYUN 1C DEB",
        "group": "fengyun-1c-debris",
        "lat": 68.77477900006407,
        "lon": -58.502216632732434,
        "alt_km": 864.1476269922341,
        "timestamp": "2025-12-19T16:54:44.547802+00:00",
        "meta_object_name": "FENGYUN 1C DEB",
        "meta_object_id": "1999-025CXR",
        "meta_epoch": "2025-12-18T13:08:05.064576",
        "meta_mean_motion": 14.09156551,
        "meta_eccentricity": 0.00497513,
        "meta_inclination": 99.5334,
        "meta_ra_of_asc_node": 94.6358,
        "meta_arg_of_pericenter": 8.0647,
        "meta_mean_anomaly": 352.131,
        "meta_ephemeris_type": 0,
        "meta_classification_type": "U",
        "meta_norad_cat_id": 32324,
        "meta_element_set_no": 999,
        "meta_rev_at_epoch": 64080,
        "meta_bstar": 0.00035821662,
        "meta_mean_motion_dot": 5.8e-06,
        "meta_mean_motion_ddot": 0,
        "tle_line1": "1 32324U 99025CXR 25352.54728084  .00000580  00000+0  35822-3 0  9999",
        "tle_line2": "2 32324  99.5334  94.6358 0049751   8.0647 352.1310 14.09156551640805"
      },
      "geometry": {
        "type": "Point",
        "coordinates": [
          -58.502216632732434,
          68.77477900006407
        ]
      }
    },
    {
      "type": "Feature",
      "properties": {
        "norad_id": 32326,
        "name": "FENGYUN 1C DEB",
        "group": "fengyun-1c-debris",
        "lat": 72.65386210953348,
        "lon": -106.29402445975481,
        "alt_km": 790.7963220542988,
        "timestamp": "2025-12-19T16:54:44.547813+00:00",
        "meta_object_name": "FENGYUN 1C DEB",
        "meta_object_id": "1999-025CXT",
        "meta_epoch": "2025-12-18T12:29:32.666208",
        "meta_mean_motion": 13.69288569,
        "meta_eccentricity": 0.03868789,
        "meta_inclination": 98.4914,
        "meta_ra_of_asc_node": 281.2317,
        "meta_arg_of_pericenter": 123.9008,
        "meta_mean_anomaly": 239.9572,
        "meta_ephemeris_type": 0,
        "meta_classification_type": "U",
        "meta_norad_cat_id": 32326,
        "meta_element_set_no": 999,
        "meta_rev_at_epoch": 63261,
        "meta_bstar": 0.00036140624,
        "meta_mean_motion_dot": 4.97e-06,
        "meta_mean_motion_ddot": 0,
        "tle_line1": "1 32326U 99025CXT 25352.52051697  .00000497  00000+0  36141-3 0  9990",
        "tle_line2": "2 32326  98.4914 281.2317 0386878 123.9008 239.9572 13.69288569632612"
      },
      "geometry": {
        "type": "Point",
        "coordinates": [
          -106.29402445975481,
          72.65386210953348
        ]
      }
    },
    {
      "type": "Feature",
      "properties": {
        "norad_id": 32332,
        "name": "FENGYUN 1C DEB",
        "group": "fengyun-1c-debris",
        "lat": 32.546052533193766,
        "lon": -126.38931649705383,
        "alt_km": 1073.5160316949423,
        "timestamp": "2025-12-19T16:54:44.547825+00:00",
        "meta_object_name": "FENGYUN 1C DEB",
        "meta_object_id": "1999-025CXZ",
        "meta_epoch": "2025-12-15T21:05:55.809024",
        "meta_mean_motion": 13.97153731,
        "meta_eccentricity": 0.02851681,
        "meta_inclination": 99.133,
        "meta_ra_of_asc_node": 43.9123,
        "meta_arg_of_pericenter": 304.1737,
        "meta_mean_anomaly": 53.2688,
        "meta_ephemeris_type": 0,
        "meta_classification_type": "U",
        "meta_norad_cat_id": 32332,
        "meta_element_set_no": 999,
        "meta_rev_at_epoch": 93080,
        "meta_bstar": 0.0011409516,
        "meta_mean_motion_dot": 2.204e-05,
        "meta_mean_motion_ddot": 0,
        "tle_line1": "1 32332U 99025CXZ 25349.87911816  .00002204  00000+0  11410-2 0  9998",
        "tle_line2": "2 32332  99.1330  43.9123 0285168 304.1737  53.2688 13.97153731930809"
      },
      "geometry": {
        "type": "Point",
        "coordinates": [
          -126.38931649705383,
          32.546052533193766
        ]
      }
    },
    {
      "type": "Feature",
      "properties": {
        "norad_id": 32334,
        "name": "FENGYUN 1C DEB",
        "group": "fengyun-1c-debris",
        "lat": 80.05736625673423,
        "lon": -63.38102444641177,
        "alt_km": 928.1004444225682,
        "timestamp": "2025-12-19T16:54:44.547835+00:00",
        "meta_object_name": "FENGYUN 1C DEB",
        "meta_object_id": "1999-025CYB",
        "meta_epoch": "2025-12-19T02:45:26.342208",
        "meta_mean_motion": 14.01647768,
        "meta_eccentricity": 0.00667563,
        "meta_inclination": 99.2517,
        "meta_ra_of_asc_node": 47.6142,
        "meta_arg_of_pericenter": 263.2509,
        "meta_mean_anomaly": 96.1056,
        "meta_ephemeris_type": 0,
        "meta_classification_type": "U",
        "meta_norad_cat_id": 32334,
        "meta_element_set_no": 999,
        "meta_rev_at_epoch": 94029,
        "meta_bstar": 0.00021365626,
        "meta_mean_motion_dot": 2.83e-06,
        "meta_mean_motion_ddot": 0,
        "tle_line1": "1 32334U 99025CYB 25353.11488822  .00000283  00000+0  21366-3 0  9995",
        "tle_line2": "2 32334  99.2517  47.6142 0066756 263.2509  96.1056 14.01647768940296"
      },
      "geometry": {
        "type": "Point",
        "coordinates": [
          -63.38102444641177,
          80.05736625673423
        ]
      }
    },
    {
      "type": "Feature",
      "properties": {
        "norad_id": 32340,
        "name": "FENGYUN 1C DEB",
        "group": "fengyun-1c-debris",
        "lat": 34.11522105660418,
        "lon": -5.891983857765974,
        "alt_km": 656.4584854782306,
        "timestamp": "2025-12-19T16:54:44.547846+00:00",
        "meta_object_name": "FENGYUN 1C DEB",
        "meta_object_id": "1999-025CYH",
        "meta_epoch": "2025-12-19T06:59:09.162528",
        "meta_mean_motion": 14.74785599,
        "meta_eccentricity": 0.00336443,
        "meta_inclination": 98.9805,
        "meta_ra_of_asc_node": 359.7997,
        "meta_arg_of_pericenter": 272.8762,
        "meta_mean_anomaly": 86.8593,
        "meta_ephemeris_type": 0,
        "meta_classification_type": "U",
        "meta_norad_cat_id": 32340,
        "meta_element_set_no": 999,
        "meta_rev_at_epoch": 97293,
        "meta_bstar": 0.0015076412,
        "meta_mean_motion_dot": 0.00010133,
        "meta_mean_motion_ddot": 0,
        "tle_line1": "1 32340U 99025CYH 25353.29107827  .00010133  00000+0  15076-2 0  9999",
        "tle_line2": "2 32340  98.9805 359.7997 0033644 272.8762  86.8593 14.74785599972934"
      },
      "geometry": {
        "type": "Point",
        "coordinates": [
          -5.891983857765974,
          34.11522105660418
        ]
      }
    },
    {
      "type": "Feature",
      "properties": {
        "norad_id": 32342,
        "name": "FENGYUN 1C DEB",
        "group": "fengyun-1c-debris",
        "lat": 23.76196741855276,
        "lon": -1.7557632187257906,
        "alt_km": 844.057676392119,
        "timestamp": "2025-12-19T16:54:44.547858+00:00",
        "meta_object_name": "FENGYUN 1C DEB",
        "meta_object_id": "1999-025CYK",
        "meta_epoch": "2025-12-19T00:04:11.696160",
        "meta_mean_motion": 14.13401322,
        "meta_eccentricity": 0.00071783,
        "meta_inclination": 98.6697,
        "meta_ra_of_asc_node": 1.4159,
        "meta_arg_of_pericenter": 332.7608,
        "meta_mean_anomaly": 82.5587,
        "meta_ephemeris_type": 0,
        "meta_classification_type": "U",
        "meta_norad_cat_id": 32342,
        "meta_element_set_no": 999,
        "meta_rev_at_epoch": 93806,
        "meta_bstar": 8.895456e-05,
        "meta_mean_motion_dot": 1.25e-06,
        "meta_mean_motion_ddot": 0,
        "tle_line1": "1 32342U 99025CYK 25353.00291315  .00000125  00000+0  88955-4 0  9994",
        "tle_line2": "2 32342  98.6697   1.4159 0007178 332.7608  82.5587 14.13401322938065"
      },
      "geometry": {
        "type": "Point",
        "coordinates": [
          -1.7557632187257906,
          23.76196741855276
        ]
      }
    },
    {
      "type": "Feature",
      "properties": {
        "norad_id": 32343,
        "name": "FENGYUN 1C DEB",
        "group": "fengyun-1c-debris",
        "lat": -0.2871710395960821,
        "lon": -19.667861732049193,
        "alt_km": 860.6500896568032,
        "timestamp": "2025-12-19T16:54:44.547889+00:00",
        "meta_object_name": "FENGYUN 1C DEB",
        "meta_object_id": "1999-025CYL",
        "meta_epoch": "2025-12-13T05:18:56.833632",
        "meta_mean_motion": 14.19848796,
        "meta_eccentricity": 0.01521973,
        "meta_inclination": 98.6084,
        "meta_ra_of_asc_node": 333.9812,
        "meta_arg_of_pericenter": 126.2805,
        "meta_mean_anomaly": 235.2541,
        "meta_ephemeris_type": 0,
        "meta_classification_type": "U",
        "meta_norad_cat_id": 32343,
        "meta_element_set_no": 999,
        "meta_rev_at_epoch": 64720,
        "meta_bstar": 0.00041342117,
        "meta_mean_motion_dot": 9.43e-06,
        "meta_mean_motion_ddot": 0,
        "tle_line1": "1 32343U 99025CYL 25347.22149113  .00000943  00000+0  41342-3 0  9996",
        "tle_line2": "2 32343  98.6084 333.9812 0152197 126.2805 235.2541 14.19848796647208"
      },
      "geometry": {
        "type": "Point",
        "coordinates": [
          -19.667861732049193,
          -0.2871710395960821
        ]
      }
    }
  ]
}